{"type": "FeatureCollection", "features": [ {"type": "Feature", "properties": {"norad_id": 66687, "name": "TRANSPORTER-15X", "group": "last-30-days", "lat": 78.17582820930554, "lon": 32.05784305778738, "alt_km": 503.7351687572118, "timestamp": "2025-12-25T03:55:54.952637+00:00", "meta": {"OBJECT_NAME": "TRANSPORTER-15X", "OBJECT_ID": "2025-276X", "EPOCH": "2025-12-24T19:39:39.430368", "MEAN_MOTION": 15.16751449, "ECCENTRICITY": 0.0008091, "INCLINATION": 97.4384, "RA_OF_ASC_NODE": 70.3337, "ARG_OF_PERICENTER": 47.7235, "MEAN_ANOMALY": 312.4683, "EPHEMERIS_TYPE": 0, "CLASSIFICATION_TYPE": "U", "NORAD_CAT_ID": 66687, "ELEMENT_SET_NO": 999, "REV_AT_EPOCH": 395, "BSTAR": 0.00066287, "MEAN_MOTION_DOT": 0.00012962, "MEAN_MOTION_DDOT": 0}, "tle": {"line1": "1 66687U 25276X   25358.81920637  .00012962  00000+0  66287-3 0  9995", "line2": "2 66687  97.4384  70.3337 0008091  47.7235 312.4683 15.16751449  3956"}}, "geometry": {"type": "Point", "coordinates": [32.05784305778738, 78.17582820930554]}}, {"type": "Feature", "properties": {"norad_id": 66688, "name": "TRANSPORTER-15Y", "group": "last-30-days", "lat": 61.109126279506036, "lon": -95.59192674793992, "alt_km": 509.99743787041825, "timestamp": "2025-12-25T03:55:54.952647+00:00", "meta": {"OBJECT_NAME": "TRANSPORTER-15Y", "OBJECT_ID": "2025-276Y", "EPOCH": "2025-12-24T19:29:55.420800", "MEAN_MOTION": 15.17106939, "ECCENTRICITY": 0.0003745, "INCLINATION": 97.4429, "RA_OF_ASC_NODE": 70.359, "ARG_OF_PERICENTER": 240.3702, "MEAN_ANOMALY": 119.7158, "EPHEMERIS_TYPE": 0, "CLASSIFICATION_TYPE": "U", "NORAD_CAT_ID": 66688, "ELEMENT_SET_NO": 999, "REV_AT_EPOCH": 395, "BSTAR": 0.00047505, "MEAN_MOTION_DOT": 9.355e-05, "MEAN_MOTION_DDOT": 0}, "tle": {"line1": "1 66688U 25276Y   25358.81244700  .00009355  00000+0  47505-3 0  9990", "line2": "2 66688  97.4429  70.3590 0003745 240.3702 119.7158 15.17106939  3953"}}, "geometry": {"type": "Point", "coordinates": [-95.59192674793992, 61.109126279506036]}}, {"type": "Feature", "properties": {"norad_id": 66689, "name": "TRANSPORTER-15Z", "group": "last-30-days", "lat": -57.25540920324788, "lon": -120.9752643283123, "alt_km": 454.26541709961657, "timestamp": "2025-12-25T03:55:54.952660+00:00", "meta": {"OBJECT_NAME": "TRANSPORTER-15Z", "OBJECT_ID": "2025-276Z", "EPOCH": "2025-12-22T21:27:46.425312", "MEAN_MOTION": 15.23073772, "ECCENTRICITY": 0.00272271, "INCLINATION": 97.4409, "RA_OF_ASC_NODE": 68.4858, "ARG_OF_PERICENTER": 260.8557, "MEAN_ANOMALY": 98.9599, "EPHEMERIS_TYPE": 0, "CLASSIFICATION_TYPE": "U", "NORAD_CAT_ID": 66689, "ELEMENT_SET_NO": 999, "REV_AT_EPOCH": 366, "BSTAR": 0.086131248, "MEAN_MOTION_DOT": 0.02294864, "MEAN_MOTION_DDOT": 0}, "tle": {"line1": "1 66689U 25276Z   25356.89428733  .02294864  00000+0  86131-1 0  9996", "line2": "2 66689  97.4409  68.4858 0027227 260.8557  98.9599 15.23073772  3663"}}, "geometry": {"type": "Point", "coordinates": [-120.9752643283123, -57.25540920324788]}}, {"type": "Feature", "properties": {"norad_id": 66690, "name": "TRANSPORTER-15AA", "group": "last-30-days", "lat": 61.61294301181287, "lon": -95.31665201241424, "alt_km": 509.9659754906452, "timestamp": "2025-12-25T03:55:54.952670+00:00", "meta": {"OBJECT_NAME": "TRANSPORTER-15AA", "OBJECT_ID": "2025-276AA", "EPOCH": "2025-12-24T19:30:03.246048", "MEAN_MOTION": 15.17084124, "ECCENTRICITY": 0.000368, "INCLINATION": 97.439, "RA_OF_ASC_NODE": 70.3468, "ARG_OF_PERICENTER": 239.3101, "MEAN_ANOMALY": 120.7769, "EPHEMERIS_TYPE": 0, "CLASSIFICATION_TYPE": "U", "NORAD_CAT_ID": 66690, "ELEMENT_SET_NO": 999, "REV_AT_EPOCH": 395, "BSTAR": 0.00052351, "MEAN_MOTION_DOT": 0.00010311, "MEAN_MOTION_DDOT": 0}, "tle": {"line1": "1 66690U 25276AA  25358.81253757  .00010311  00000+0  52351-3 0  9994", "line2": "2 66690  97.4390  70.3468 0003680 239.3101 120.7769 15.17084124  3957"}}, "geometry": {"type": "Point", "coordinates": [-95.31665201241424, 61.61294301181287]}}, {"type": "Feature", "properties": {"norad_id": 66691, "name": "TRANSPORTER-15AB", "group": "last-30-days", "lat": 48.96017000253888, "lon": -100.65966588872368, "alt_km": 510.34772275449177, "timestamp": "2025-12-25T03:55:54.952680+00:00", "meta": {"OBJECT_NAME": "TRANSPORTER-15AB", "OBJECT_ID": "2025-276AB", "EPOCH": "2025-12-24T19:26:42.703008", "MEAN_MOTION": 15.17335763, "ECCENTRICITY": 0.0003802, "INCLINATION": 97.4415, "RA_OF_ASC_NODE": 70.3575, "ARG_OF_PERICENTER": 240.4824, "MEAN_ANOMALY": 119.603, "EPHEMERIS_TYPE": 0, "CLASSIFICATION_TYPE": "U", "NORAD_CAT_ID": 66691, "ELEMENT_SET_NO": 999, "REV_AT_EPOCH": 395, "BSTAR": 0.00056188, "MEAN_MOTION_DOT": 0.00011153, "MEAN_MOTION_DDOT": 0}, "tle": {"line1": "1 66691U 25276AB  25358.81021647  .00011153  00000+0  56188-3 0  9993", "line2": "2 66691  97.4415  70.3575 0003802 240.4824 119.6030 15.17335763  3952"}}, "geometry": {"type": "Point", "coordinates": [-100.65966588872368, 48.96017000253888]}}, {"type": "Feature", "properties": {"norad_id": 66692, "name": "TRANSPORTER-15AC", "group": "last-30-days", "lat": 31.32273031037601, "lon": -104.72157507435313, "alt_km": 512.2890154163251, "timestamp": "2025-12-25T03:55:54.952690+00:00", "meta": {"OBJECT_NAME": "TRANSPORTER-15AC", "OBJECT_ID": "2025-276AC", "EPOCH": "2025-12-24T13:02:12.289056", "MEAN_MOTION": 15.17424019, "ECCENTRICITY": 0.0001771, "INCLINATION": 97.4417, "RA_OF_ASC_NODE": 70.1064, "ARG_OF_PERICENTER": 257.1545, "MEAN_ANOMALY": 102.949, "EPHEMERIS_TYPE": 0, "CLASSIFICATION_TYPE": "U", "NORAD_CAT_ID": 66692, "ELEMENT_SET_NO": 999, "REV_AT_EPOCH": 391, "BSTAR": 0.00035305, "MEAN_MOTION_DOT": 6.996e-05, "MEAN_MOTION_DDOT": 0}, "tle": {"line1": "1 66692U 25276AC  25358.54319779  .00006996  00000+0  35305-3 0  9997", "line2": "2 66692  97.4417  70.1064 0001771 257.1545 102.9490 15.17424019  3918"}}, "geometry": {"type": "Point", "coordinates": [-104.72157507435313, 31.32273031037601]}}, {"type": "Feature", "properties": {"norad_id": 66693, "name": "TRANSPORTER-15AD", "group": "last-30-days", "lat": 65.69363053490957, "lon": -92.5074127207142, "alt_km": 523.6567837890398, "timestamp": "2025-12-25T03:55:54.952700+00:00", "meta": {"OBJECT_NAME": "TRANSPORTER-15AD", "OBJECT_ID": "2025-276AD", "EPOCH": "2025-12-24T03:35:03.617088", "MEAN_MOTION": 15.12110895, "ECCENTRICITY": 0.00219356, "INCLINATION": 97.4375, "RA_OF_ASC_NODE": 69.6952, "ARG_OF_PERICENTER": 66.2072, "MEAN_ANOMALY": 294.1455, "EPHEMERIS_TYPE": 0, "CLASSIFICATION_TYPE": "U", "NORAD_CAT_ID": 66693, "ELEMENT_SET_NO": 999, "REV_AT_EPOCH": 385, "BSTAR": -0.10195187, "MEAN_MOTION_DOT": -0.0160531, "MEAN_MOTION_DDOT": 0}, "tle": {"line1": "1 66693U 25276AD  25358.14934742 -.01605310  00000+0 -10195+0 0  9991", "line2": "2 66693  97.4375  69.6952 0021935  66.2072 294.1455 15.12110895  3856"}}, "geometry": {"type": "Point", "coordinates": [-92.5074127207142, 65.69363053490957]}}, {"type": "Feature", "properties": {"norad_id": 66694, "name": "YAM-9", "group": "last-30-days", "lat": 20.59283465284056, "lon": -106.46853109144776, "alt_km": 513.1726351756224, "timestamp": "2025-12-25T03:55:54.952710+00:00", "meta": {"OBJECT_NAME": "YAM-9", "OBJECT_ID": "2025-276AE", "EPOCH": "2025-12-22T15:05:57.357312", "MEAN_MOTION": 15.17554197, "ECCENTRICITY": 0.00015162, "INCLINATION": 97.4414, "RA_OF_ASC_NODE": 68.2259, "ARG_OF_PERICENTER": 262.5734, "MEAN_ANOMALY": 97.5327, "EPHEMERIS_TYPE": 0, "CLASSIFICATION_TYPE": "U", "NORAD_CAT_ID": 66694, "ELEMENT_SET_NO": 999, "REV_AT_EPOCH": 362, "BSTAR": 0.00067893264, "MEAN_MOTION_DOT": 0.00013577, "MEAN_MOTION_DDOT": 0}, "tle": {"line1": "1 66694U 25276AE  25356.62913608  .00013577  00000+0  67893-3 0  9997", "line2": "2 66694  97.4414  68.2259 0001516 262.5734  97.5327 15.17554197  3625"}}, "geometry": {"type": "Point", "coordinates": [-106.46853109144776, 20.59283465284056]}}, {"type": "Feature", "properties": {"norad_id": 66695, "name": "IRIDE FM1", "group": "last-30-days", "lat": -42.08120617176698, "lon": -116.03887673976877, "alt_km": 517.4330675155779, "timestamp": "2025-12-25T03:55:54.952720+00:00", "meta": {"OBJECT_NAME": "IRIDE FM1", "OBJECT_ID": "2025-276AF", "EPOCH": "2025-12-24T19:02:48.316992", "MEAN_MOTION": 15.18300863, "ECCENTRICITY": 0.0001614, "INCLINATION": 97.4395, "RA_OF_ASC_NODE": 70.3732, "ARG_OF_PERICENTER": 143.0779, "MEAN_ANOMALY": 217.0566, "EPHEMERIS_TYPE": 0, "CLASSIFICATION_TYPE": "U", "NORAD_CAT_ID": 66695, "ELEMENT_SET_NO": 999, "REV_AT_EPOCH": 395, "BSTAR": 0.00064172, "MEAN_MOTION_DOT": 0.00013107, "MEAN_MOTION_DDOT": 0}, "tle": {"line1": "1 66695U 25276AF  25358.79361478  .00013107  00000+0  64172-3 0  9996", "line2": "2 66695  97.4395  70.3732 0001614 143.0779 217.0566 15.18300863  3955"}}, "geometry": {"type": "Point", "coordinates": [-116.03887673976877, -42.08120617176698]}}, {"type": "Feature", "properties": {"norad_id": 66696, "name": "IRIDE FM2", "group": "last-30-days", "lat": 35.1714489012929, "lon": -104.01744031490654, "alt_km": 511.9085437459262, "timestamp": "2025-12-25T03:55:54.952732+00:00", "meta": {"OBJECT_NAME": "IRIDE FM2", "OBJECT_ID": "2025-276AG", "EPOCH": "2025-12-24T19:23:03.856128", "MEAN_MOTION": 15.17442691, "ECCENTRICITY": 0.0002483, "INCLINATION": 97.4386, "RA_OF_ASC_NODE": 70.3502, "ARG_OF_PERICENTER": 257.3335, "MEAN_ANOMALY": 102.7621, "EPHEMERIS_TYPE": 0, "CLASSIFICATION_TYPE": "U", "NORAD_CAT_ID": 66696, "ELEMENT_SET_NO": 999, "REV_AT_EPOCH": 395, "BSTAR": 0.00036035, "MEAN_MOTION_DOT": 7.146e-05, "MEAN_MOTION_DDOT": 0}, "tle": {"line1": "1 66696U 25276AG  25358.80768352  .00007146  00000+0  36035-3 0  9994", "line2": "2 66696  97.4386  70.3502 0002483 257.3335 102.7621 15.17442691  3950"}}, "geometry": {"type": "Point", "coordinates": [-104.01744031490654, 35.1714489012929]}}]}